{"type": "FeatureCollection", "features": [ {"type": "Feature", "properties": {"norad_id": 66876, "name": "STARLINK-35702", "group": "last-30-days", "lat": 33.73784289469903, "lon": 139.48521707533914, "alt_km": 336.43206329524764, "timestamp": "2025-12-17T09:00:15.892063+00:00", "meta": {"OBJECT_NAME": "STARLINK-35702", "OBJECT_ID": "2025-281AE", "EPOCH": "2025-12-16T22:00:03.000096", "MEAN_MOTION": 15.78024623, "ECCENTRICITY": 0.00018372, "INCLINATION": 43.0007, "RA_OF_ASC_NODE": 96.4925, "ARG_OF_PERICENTER": 275.3827, "MEAN_ANOMALY": 52.8401, "EPHEMERIS_TYPE": 0, "CLASSIFICATION_TYPE": "U", "NORAD_CAT_ID": 66876, "ELEMENT_SET_NO": 999, "REV_AT_EPOCH": 210, "BSTAR": -0.010984296, "MEAN_MOTION_DOT": -0.01704281, "MEAN_MOTION_DDOT": 0}, "tle": {"line1": "1 66876U 25281AE  25350.91670139 -.01704281  00000+0 -10984-1 0  9999", "line2": "2 66876  43.0007  96.4925 0001837 275.3827  52.8401 15.78024623  2108"}}, "geometry": {"type": "Point", "coordinates": [139.48521707533914, 33.73784289469903]}}, {"type": "Feature", "properties": {"norad_id": 66877, "name": "ZQ-3 R/B", "group": "last-30-days", "lat": -52.89510477661381, "lon": -19.594755712534614, "alt_km": 380.4017047448406, "timestamp": "2025-12-17T09:00:15.892074+00:00", "meta": {"OBJECT_NAME": "ZQ-3 R/B", "OBJECT_ID": "2025-282A", "EPOCH": "2025-12-16T12:05:30.168960", "MEAN_MOTION": 14.67302001, "ECCENTRICITY": 0.07466411, "INCLINATION": 56.9512, "RA_OF_ASC_NODE": 43.1806, "ARG_OF_PERICENTER": 226.5107, "MEAN_ANOMALY": 127.1487, "EPHEMERIS_TYPE": 0, "CLASSIFICATION_TYPE": "U", "NORAD_CAT_ID": 66877, "ELEMENT_SET_NO": 999, "REV_AT_EPOCH": 194, "BSTAR": 0.00019784483, "MEAN_MOTION_DOT": 0.01038598, "MEAN_MOTION_DDOT": 7.617862e-06}, "tle": {"line1": "1 66877U 25282A   25350.50382140  .01038598  76179-5  19784-3 0  9992", "line2": "2 66877  56.9512  43.1806 0746641 226.5107 127.1487 14.67302001  1945"}}, "geometry": {"type": "Point", "coordinates": [-19.594755712534614, -52.89510477661381]}}, {"type": "Feature", "properties": {"norad_id": 66878, "name": "STARLINK-35866", "group": "last-30-days", "lat": 51.23873599108193, "lon": 119.55810418054658, "alt_km": 315.52163585896596, "timestamp": "2025-12-17T09:00:15.892085+00:00", "meta": {"OBJECT_NAME": "STARLINK-35866", "OBJECT_ID": "2025-283A", "EPOCH": "2025-12-16T22:00:03.000096", "MEAN_MOTION": 15.83847215, "ECCENTRICITY": 7.756e-05, "INCLINATION": 53.1559, "RA_OF_ASC_NODE": 52.8112, "ARG_OF_PERICENTER": 77.4097, "MEAN_ANOMALY": 264.9784, "EPHEMERIS_TYPE": 0, "CLASSIFICATION_TYPE": "U", "NORAD_CAT_ID": 66878, "ELEMENT_SET_NO": 999, "REV_AT_EPOCH": 310, "BSTAR": -0.0061121137, "MEAN_MOTION_DOT": -0.01230863, "MEAN_MOTION_DDOT": 0}, "tle": {"line1": "1 66878U 25283A   25350.91670139 -.01230863  00000+0 -61121-2 0  9993", "line2": "2 66878  53.1559  52.8112 0000775  77.4097 264.9784 15.83847215  3105"}}, "geometry": {"type": "Point", "coordinates": [119.55810418054658, 51.23873599108193]}}, {"type": "Feature", "properties": {"norad_id": 66879, "name": "STARLINK-35749", "group": "last-30-days", "lat": 52.43129909450866, "lon": 127.60512286662637, "alt_km": 315.5158091972762, "timestamp": "2025-12-17T09:00:15.892096+00:00", "meta": {"OBJECT_NAME": "STARLINK-35749", "OBJECT_ID": "2025-283B", "EPOCH": "2025-12-16T22:00:03.000096", "MEAN_MOTION": 15.83832618, "ECCENTRICITY": 6.831e-05, "INCLINATION": 53.1557, "RA_OF_ASC_NODE": 52.8003, "ARG_OF_PERICENTER": 71.4253, "MEAN_ANOMALY": 276.1122, "EPHEMERIS_TYPE": 0, "CLASSIFICATION_TYPE": "U", "NORAD_CAT_ID": 66879, "ELEMENT_SET_NO": 999, "REV_AT_EPOCH": 310, "BSTAR": -0.0062282985, "MEAN_MOTION_DOT": -0.01250739, "MEAN_MOTION_DDOT": 0}, "tle": {"line1": "1 66879U 25283B   25350.91670139 -.01250739  00000+0 -62283-2 0  9998", "line2": "2 66879  53.1557  52.8003 0000683  71.4253 276.1122 15.83832618  3101"}}, "geometry": {"type": "Point", "coordinates": [127.60512286662637, 52.43129909450866]}}, {"type": "Feature", "properties": {"norad_id": 66880, "name": "STARLINK-35844", "group": "last-30-days", "lat": 51.87990144968768, "lon": 123.36659072513187, "alt_km": 315.47598140192713, "timestamp": "2025-12-17T09:00:15.892106+00:00", "meta": {"OBJECT_NAME": "STARLINK-35844", "OBJECT_ID": "2025-283C", "EPOCH": "2025-12-16T22:00:03.000096", "MEAN_MOTION": 15.83841208, "ECCENTRICITY": 7.587e-05, "INCLINATION": 53.156, "RA_OF_ASC_NODE": 52.8064, "ARG_OF_PERICENTER": 77.1567, "MEAN_ANOMALY": 267.6979, "EPHEMERIS_TYPE": 0, "CLASSIFICATION_TYPE": "U", "NORAD_CAT_ID": 66880, "ELEMENT_SET_NO": 999, "REV_AT_EPOCH": 310, "BSTAR": -0.0061468139, "MEAN_MOTION_DOT": -0.01236731, "MEAN_MOTION_DDOT": 0}, "tle": {"line1": "1 66880U 25283C   25350.91670139 -.01236731  00000+0 -61468-2 0  9990", "line2": "2 66880  53.1560  52.8064 0000758  77.1567 267.6979 15.83841208  3108"}}, "geometry": {"type": "Point", "coordinates": [123.36659072513187, 51.87990144968768]}}, {"type": "Feature", "properties": {"norad_id": 66881, "name": "STARLINK-35860", "group": "last-30-days", "lat": 52.7688379602091, "lon": 131.16101379704725, "alt_km": 315.3590998890104, "timestamp": "2025-12-17T09:00:15.892118+00:00", "meta": {"OBJECT_NAME": "STARLINK-35860", "OBJECT_ID": "2025-283D", "EPOCH": "2025-12-16T22:00:03.000096", "MEAN_MOTION": 15.83838061, "ECCENTRICITY": 8.394e-05, "INCLINATION": 53.1558, "RA_OF_ASC_NODE": 52.7955, "ARG_OF_PERICENTER": 73.1297, "MEAN_ANOMALY": 276.5866, "EPHEMERIS_TYPE": 0, "CLASSIFICATION_TYPE": "U", "NORAD_CAT_ID": 66881, "ELEMENT_SET_NO": 999, "REV_AT_EPOCH": 310, "BSTAR": -0.0062453865, "MEAN_MOTION_DOT": -0.0125415, "MEAN_MOTION_DDOT": 0}, "tle": {"line1": "1 66881U 25283D   25350.91670139 -.01254150  00000+0 -62454-2 0  9992", "line2": "2 66881  53.1558  52.7955 0000839  73.1297 276.5866 15.83838061  3107"}}, "geometry": {"type": "Point", "coordinates": [131.16101379704725, 52.7688379602091]}}, {"type": "Feature", "properties": {"norad_id": 66882, "name": "STARLINK-35912", "group": "last-30-days", "lat": 53.01616666365335, "lon": 135.1483102669067, "alt_km": 315.3151678105587, "timestamp": "2025-12-17T09:00:15.892130+00:00", "meta": {"OBJECT_NAME": "STARLINK-35912", "OBJECT_ID": "2025-283E", "EPOCH": "2025-12-16T22:00:03.000096", "MEAN_MOTION": 15.83831509, "ECCENTRICITY": 9.021e-05, "INCLINATION": 53.1559, "RA_OF_ASC_NODE": 52.791, "ARG_OF_PERICENTER": 72.4557, "MEAN_ANOMALY": 279.6902, "EPHEMERIS_TYPE": 0, "CLASSIFICATION_TYPE": "U", "NORAD_CAT_ID": 66882, "ELEMENT_SET_NO": 999, "REV_AT_EPOCH": 310, "BSTAR": -0.0062646565, "MEAN_MOTION_DOT": -0.01257256, "MEAN_MOTION_DDOT": 0}, "tle": {"line1": "1 66882U 25283E   25350.91670139 -.01257256  00000+0 -62647-2 0  9997", "line2": "2 66882  53.1559  52.7910 0000902  72.4557 279.6902 15.83831509  3107"}}, "geometry": {"type": "Point", "coordinates": [135.1483102669067, 53.01616666365335]}}, {"type": "Feature", "properties": {"norad_id": 66883, "name": "STARLINK-35947", "group": "last-30-days", "lat": 53.13067337275754, "lon": 139.38619407413785, "alt_km": 315.3881526521982, "timestamp": "2025-12-17T09:00:15.892140+00:00", "meta": {"OBJECT_NAME": "STARLINK-35947", "OBJECT_ID": "2025-283F", "EPOCH": "2025-12-16T22:00:03.000096", "MEAN_MOTION": 15.83823595, "ECCENTRICITY": 8.315e-05, "INCLINATION": 53.1559, "RA_OF_ASC_NODE": 52.7858, "ARG_OF_PERICENTER": 79.8033, "MEAN_ANOMALY": 274.9112, "EPHEMERIS_TYPE": 0, "CLASSIFICATION_TYPE": "U", "NORAD_CAT_ID": 66883, "ELEMENT_SET_NO": 999, "REV_AT_EPOCH": 314, "BSTAR": -0.0063101512, "MEAN_MOTION_DOT": -0.01264856, "MEAN_MOTION_DDOT": 0}, "tle": {"line1": "1 66883U 25283F   25350.91670139 -.01264856  00000+0 -63102-2 0  9999", "line2": "2 66883  53.1559  52.7858 0000831  79.8033 274.9112 15.83823595  3141"}}, "geometry": {"type": "Point", "coordinates": [139.38619407413785, 53.13067337275754]}}, {"type": "Feature", "properties": {"norad_id": 66884, "name": "STARLINK-36057", "group": "last-30-days", "lat": 52.91338318358236, "lon": 147.73782573436918, "alt_km": 315.55036441402353, "timestamp": "2025-12-17T09:00:15.892152+00:00", "meta": {"OBJECT_NAME": "STARLINK-36057", "OBJECT_ID": "2025-283G", "EPOCH": "2025-12-16T22:00:03.000096", "MEAN_MOTION": 15.83807873, "ECCENTRICITY": 7.669e-05, "INCLINATION": 53.1558, "RA_OF_ASC_NODE": 52.7747, "ARG_OF_PERICENTER": 79.2046, "MEAN_ANOMALY": 280.5708, "EPHEMERIS_TYPE": 0, "CLASSIFICATION_TYPE": "U", "NORAD_CAT_ID": 66884, "ELEMENT_SET_NO": 999, "REV_AT_EPOCH": 310, "BSTAR": -0.0063881791, "MEAN_MOTION_DOT": -0.0127776, "MEAN_MOTION_DDOT": 0}, "tle": {"line1": "1 66884U 25283G   25350.91670139 -.01277760  00000+0 -63882-2 0  9993", "line2": "2 66884  53.1558  52.7747 0000766  79.2046 280.5708 15.83807873  3104"}}, "geometry": {"type": "Point", "coordinates": [147.73782573436918, 52.91338318358236]}}, {"type": "Feature", "properties": {"norad_id": 66885, "name": "STARLINK-35954", "group": "last-30-days", "lat": 53.094963608113886, "lon": 143.58244880760216, "alt_km": 315.4644648467929, "timestamp": "2025-12-17T09:00:15.892164+00:00", "meta": {"OBJECT_NAME": "STARLINK-35954", "OBJECT_ID": "2025-283H", "EPOCH": "2025-12-16T22:00:03.000096", "MEAN_MOTION": 15.83816386, "ECCENTRICITY": 7.94e-05, "INCLINATION": 53.1557, "RA_OF_ASC_NODE": 52.7799, "ARG_OF_PERICENTER": 76.1012, "MEAN_ANOMALY": 281.148, "EPHEMERIS_TYPE": 0, "CLASSIFICATION_TYPE": "U", "NORAD_CAT_ID": 66885, "ELEMENT_SET_NO": 999, "REV_AT_EPOCH": 310, "BSTAR": -0.0063482555, "MEAN_MOTION_DOT": -0.01271187, "MEAN_MOTION_DDOT": 0}, "tle": {"line1": "1 66885U 25283H   25350.91670139 -.01271187  00000+0 -63483-2 0  9998", "line2": "2 66885  53.1557  52.7799 0000794  76.1012 281.1480 15.83816386  3104"}}, "geometry": {"type": "Point", "coordinates": [143.58244880760216, 53.094963608113886]}}]}